[{"OBJECT_NAME":"EUTELSAT KONNECT","OBJECT_ID":"2020-005B","EPOCH":"2026-04-04T21:22:39.929952","MEAN_MOTION":1.00272747,"ECCENTRICITY":0.00012531,"INCLINATION":0.0691,"RA_OF_ASC_NODE":94.3049,"ARG_OF_PERICENTER":221.3687,"MEAN_ANOMALY":205.4067,"EPHEMERIS_TYPE":0,"CLASSIFICATION_TYPE":"U","NORAD_CAT_ID":45027,"ELEMENT_SET_NO":999,"REV_AT_EPOCH":2360,"BSTAR":0,"MEAN_MOTION_DOT":5.0e-7,"MEAN_MOTION_DDOT":0},{"OBJECT_NAME":"JCSAT-17","OBJECT_ID":"2020-013A","EPOCH":"2026-04-04T17:37:51.855744","MEAN_MOTION":1.00272475,"ECCENTRICITY":0.00044399,"INCLINATION":5.3944,"RA_OF_ASC_NODE":356.1479,"ARG_OF_PERICENTER":15.6026,"MEAN_ANOMALY":221.7419,"EPHEMERIS_TYPE":0,"CLASSIFICATION_TYPE":"U","NORAD_CAT_ID":45245,"ELEMENT_SET_NO":999,"REV_AT_EPOCH":2249,"BSTAR":0,"MEAN_MOTION_DOT":-3.19e-6,"MEAN_MOTION_DDOT":0},{"OBJECT_NAME":"GEO-KOMPSAT-2B","OBJECT_ID":"2020-013B","EPOCH":"2026-04-04T21:57:13.300128","MEAN_MOTION":1.00273334,"ECCENTRICITY":0.00012326,"INCLINATION":0.0442,"RA_OF_ASC_NODE":343.0481,"ARG_OF_PERICENTER":355.7758,"MEAN_ANOMALY":311.9588,"EPHEMERIS_TYPE":0,"CLASSIFICATION_TYPE":"U","NORAD_CAT_ID":45246,"ELEMENT_SET_NO":999,"REV_AT_EPOCH":2254,"BSTAR":0,"MEAN_MOTION_DOT":-3.43e-6,"MEAN_MOTION_DDOT":0},{"OBJECT_NAME":"BEIDOU-3 G2","OBJECT_ID":"2020-017A","EPOCH":"2026-04-04T21:43:22.127808","MEAN_MOTION":1.00272137,"ECCENTRICITY":0.00028565,"INCLINATION":2.7179,"RA_OF_ASC_NODE":46.1482,"ARG_OF_PERICENTER":336.6568,"MEAN_ANOMALY":216.2951,"EPHEMERIS_TYPE":0,"CLASSIFICATION_TYPE":"U","NORAD_CAT_ID":45344,"ELEMENT_SET_NO":999,"REV_AT_EPOCH":2252,"BSTAR":0,"MEAN_MOTION_DOT":-1.39e-6,"MEAN_MOTION_DDOT":0},{"OBJECT_NAME":"AEHF-6 (USA 298)","OBJECT_ID":"2020-022B","EPOCH":"2026-04-04T21:59:50.548128","MEAN_MOTION":1.00268421,"ECCENTRICITY":0.00476025,"INCLINATION":2.7099,"RA_OF_ASC_NODE":300.2392,"ARG_OF_PERICENTER":17.0971,"MEAN_ANOMALY":343.5407,"EPHEMERIS_TYPE":0,"CLASSIFICATION_TYPE":"U","NORAD_CAT_ID":45465,"ELEMENT_SET_NO":999,"REV_AT_EPOCH":2227,"BSTAR":0,"MEAN_MOTION_DOT":-3.01e-6,"MEAN_MOTION_DDOT":0},{"OBJECT_NAME":"BEIDOU-3 G3","OBJECT_ID":"2020-040A","EPOCH":"2026-04-04T21:52:06.289824","MEAN_MOTION":1.00269886,"ECCENTRICITY":0.0004569,"INCLINATION":2.2679,"RA_OF_ASC_NODE":67.2275,"ARG_OF_PERICENTER":327.9741,"MEAN_ANOMALY":236.6001,"EPHEMERIS_TYPE":0,"CLASSIFICATION_TYPE":"U","NORAD_CAT_ID":45807,"ELEMENT_SET_NO":999,"REV_AT_EPOCH":2133,"BSTAR":0,"MEAN_MOTION_DOT":-3.52e-6,"MEAN_MOTION_DDOT":0},{"OBJECT_NAME":"APSTAR-6D","OBJECT_ID":"2020-045A","EPOCH":"2026-04-03T11:45:16.021728","MEAN_MOTION":1.00266278,"ECCENTRICITY":0.00026609,"INCLINATION":0.047,"RA_OF_ASC_NODE":103.0436,"ARG_OF_PERICENTER":345.0952,"MEAN_ANOMALY":53.9599,"EPHEMERIS_TYPE":0,"CLASSIFICATION_TYPE":"U","NORAD_CAT_ID":45863,"ELEMENT_SET_NO":999,"REV_AT_EPOCH":2111,"BSTAR":0,"MEAN_MOTION_DOT":-3.21e-6,"MEAN_MOTION_DDOT":0},{"OBJECT_NAME":"KOREASAT 116","OBJECT_ID":"2020-048A","EPOCH":"2026-04-04T21:12:06.343200","MEAN_MOTION":1.00268647,"ECCENTRICITY":0.00011925,"INCLINATION":0.0123,"RA_OF_ASC_NODE":200.2155,"ARG_OF_PERICENTER":205.2544,"MEAN_ANOMALY":221.9654,"EPHEMERIS_TYPE":0,"CLASSIFICATION_TYPE":"U","NORAD_CAT_ID":45920,"ELEMENT_SET_NO":999,"REV_AT_EPOCH":2090,"BSTAR":0,"MEAN_MOTION_DOT":0,"MEAN_MOTION_DDOT":0},{"OBJECT_NAME":"EXPRESS 103","OBJECT_ID":"2020-053A","EPOCH":"2026-04-02T01:02:21.793920","MEAN_MOTION":1.0027293,"ECCENTRICITY":8.494e-5,"INCLINATION":0.0224,"RA_OF_ASC_NODE":258.5231,"ARG_OF_PERICENTER":21.4282,"MEAN_ANOMALY":22.53,"EPHEMERIS_TYPE":0,"CLASSIFICATION_TYPE":"U","NORAD_CAT_ID":45985,"ELEMENT_SET_NO":999,"REV_AT_EPOCH":2088,"BSTAR":0,"MEAN_MOTION_DOT":-2.88e-6,"MEAN_MOTION_DDOT":0},{"OBJECT_NAME":"EXPRESS 80","OBJECT_ID":"2020-053B","EPOCH":"2026-04-04T06:01:59.505024","MEAN_MOTION":0.99608059,"ECCENTRICITY":0.01263179,"INCLINATION":0.1257,"RA_OF_ASC_NODE":265.9557,"ARG_OF_PERICENTER":142.0367,"MEAN_ANOMALY":313.0659,"EPHEMERIS_TYPE":0,"CLASSIFICATION_TYPE":"U","NORAD_CAT_ID":45986,"ELEMENT_SET_NO":999,"REV_AT_EPOCH":2090,"BSTAR":0,"MEAN_MOTION_DOT":-8.9e-7,"MEAN_MOTION_DDOT":0},{"OBJECT_NAME":"BSAT-4B","OBJECT_ID":"2020-056A","EPOCH":"2026-04-04T22:16:46.600896","MEAN_MOTION":1.00271333,"ECCENTRICITY":0.00026677,"INCLINATION":0.0748,"RA_OF_ASC_NODE":110.4336,"ARG_OF_PERICENTER":336.4903,"MEAN_ANOMALY":190.3414,"EPHEMERIS_TYPE":0,"CLASSIFICATION_TYPE":"U","NORAD_CAT_ID":46112,"ELEMENT_SET_NO":999,"REV_AT_EPOCH":2065,"BSTAR":0,"MEAN_MOTION_DOT":-3.49e-6,"MEAN_MOTION_DDOT":0},{"OBJECT_NAME":"MEV-2","OBJECT_ID":"2020-056B","EPOCH":"2026-04-04T21:34:38.715744","MEAN_MOTION":1.00272171,"ECCENTRICITY":0.00019849,"INCLINATION":0.0402,"RA_OF_ASC_NODE":43.349,"ARG_OF_PERICENTER":33.0768,"MEAN_ANOMALY":79.4337,"EPHEMERIS_TYPE":0,"CLASSIFICATION_TYPE":"U","NORAD_CAT_ID":46113,"ELEMENT_SET_NO":999,"REV_AT_EPOCH":7984,"BSTAR":0,"MEAN_MOTION_DOT":-1.0e-7,"MEAN_MOTION_DDOT":0},{"OBJECT_NAME":"GALAXY 30 (G-30)","OBJECT_ID":"2020-056C","EPOCH":"2026-04-04T17:19:32.611008","MEAN_MOTION":1.002721,"ECCENTRICITY":0.00024532,"INCLINATION":0.0167,"RA_OF_ASC_NODE":204.0502,"ARG_OF_PERICENTER":196.6343,"MEAN_ANOMALY":287.2366,"EPHEMERIS_TYPE":0,"CLASSIFICATION_TYPE":"U","NORAD_CAT_ID":46114,"ELEMENT_SET_NO":999,"REV_AT_EPOCH":2055,"BSTAR":0,"MEAN_MOTION_DOT":0,"MEAN_MOTION_DDOT":0},{"OBJECT_NAME":"GAOFEN-13 01","OBJECT_ID":"2020-071A","EPOCH":"2026-04-04T22:11:59.682048","MEAN_MOTION":1.00268251,"ECCENTRICITY":0.00425688,"INCLINATION":0.3318,"RA_OF_ASC_NODE":85.04,"ARG_OF_PERICENTER":120.9806,"MEAN_ANOMALY":78.4091,"EPHEMERIS_TYPE":0,"CLASSIFICATION_TYPE":"U","NORAD_CAT_ID":46610,"ELEMENT_SET_NO":999,"REV_AT_EPOCH":2018,"BSTAR":0,"MEAN_MOTION_DOT":-3.62e-6,"MEAN_MOTION_DDOT":0},{"OBJECT_NAME":"TIANTONG-1 2","OBJECT_ID":"2020-082A","EPOCH":"2026-04-02T20:18:24.829344","MEAN_MOTION":1.00270837,"ECCENTRICITY":0.00027673,"INCLINATION":0.9014,"RA_OF_ASC_NODE":317.9461,"ARG_OF_PERICENTER":54.7604,"MEAN_ANOMALY":248.0194,"EPHEMERIS_TYPE":0,"CLASSIFICATION_TYPE":"U","NORAD_CAT_ID":46916,"ELEMENT_SET_NO":999,"REV_AT_EPOCH":1989,"BSTAR":0,"MEAN_MOTION_DOT":-3.61e-6,"MEAN_MOTION_DDOT":0},{"OBJECT_NAME":"LUCAS (JDRS-1)","OBJECT_ID":"2020-089A","EPOCH":"2026-04-04T22:05:50.201952","MEAN_MOTION":1.00272505,"ECCENTRICITY":0.00026976,"INCLINATION":0.0287,"RA_OF_ASC_NODE":266.6166,"ARG_OF_PERICENTER":104.4804,"MEAN_ANOMALY":244.372,"EPHEMERIS_TYPE":0,"CLASSIFICATION_TYPE":"U","NORAD_CAT_ID":47202,"ELEMENT_SET_NO":999,"REV_AT_EPOCH":1968,"BSTAR":0,"MEAN_MOTION_DOT":-2.35e-6,"MEAN_MOTION_DDOT":0},{"OBJECT_NAME":"SXM-7","OBJECT_ID":"2020-096A","EPOCH":"2026-04-04T20:56:21.780384","MEAN_MOTION":1.00272072,"ECCENTRICITY":0.00047842,"INCLINATION":0.0256,"RA_OF_ASC_NODE":120.6162,"ARG_OF_PERICENTER":2.4611,"MEAN_ANOMALY":299.0303,"EPHEMERIS_TYPE":0,"CLASSIFICATION_TYPE":"U","NORAD_CAT_ID":47240,"ELEMENT_SET_NO":999,"REV_AT_EPOCH":670,"BSTAR":0,"MEAN_MOTION_DOT":-2.04e-6,"MEAN_MOTION_DDOT":0}]
