EUTELSAT KONNECT        
1 45027U 20005B   26094.89073993  .00000050  00000+0  00000+0 0  9997
2 45027   0.0691  94.3049 0001253 221.3687 205.4067  1.00272747 23600
JCSAT-17                
1 45245U 20013A   26094.73462796 -.00000319  00000+0  00000+0 0  9993
2 45245   5.3944 356.1479 0004439  15.6026 221.7419  1.00272475 22493
GEO-KOMPSAT-2B          
1 45246U 20013B   26094.91473727 -.00000343  00000+0  00000+0 0  9997
2 45246   0.0442 343.0481 0001232 355.7758 311.9588  1.00273334 22545
BEIDOU-3 G2             
1 45344U 20017A   26094.90511722 -.00000139  00000+0  00000+0 0  9990
2 45344   2.7179  46.1482 0002856 336.6568 216.2951  1.00272137 22521
AEHF-6 (USA 298)        
1 45465U 20022B   26094.91655727 -.00000301  00000+0  00000+0 0  9996
2 45465   2.7099 300.2392 0047602  17.0971 343.5407  1.00268421 22279
BEIDOU-3 G3             
1 45807U 20040A   26094.91118391 -.00000352  00000+0  00000+0 0  9993
2 45807   2.2679  67.2275 0004569 327.9741 236.6001  1.00269886 21335
APSTAR-6D               
1 45863U 20045A   26093.48976877 -.00000321  00000+0  00000+0 0  9998
2 45863   0.0470 103.0436 0002660 345.0952  53.9599  1.00266278 21115
KOREASAT 116            
1 45920U 20048A   26094.88340675  .00000000  00000+0  00000+0 0  9994
2 45920   0.0123 200.2155 0001192 205.2544 221.9654  1.00268647 20902
EXPRESS 103             
1 45985U 20053A   26092.04330780 -.00000288  00000+0  00000+0 0  9992
2 45985   0.0224 258.5231 0000849  21.4282  22.5300  1.00272930 20881
EXPRESS 80              
1 45986U 20053B   26094.25138316 -.00000089  00000+0  00000+0 0  9998
2 45986   0.1257 265.9557 0126317 142.0367 313.0659  0.99608059 20905
BSAT-4B                 
1 46112U 20056A   26094.92831714 -.00000349  00000+0  00000+0 0  9998
2 46112   0.0748 110.4336 0002667 336.4903 190.3414  1.00271333 20657
MEV-2                   
1 46113U 20056B   26094.89905921 -.00000010  00000+0  00000+0 0  9992
2 46113   0.0402  43.3490 0001984  33.0768  79.4337  1.00272171 79847
GALAXY 30 (G-30)        
1 46114U 20056C   26094.72190522  .00000000  00000+0  00000+0 0  9996
2 46114   0.0167 204.0502 0002453 196.6343 287.2366  1.00272100 20550
GAOFEN-13 01            
1 46610U 20071A   26094.92499632 -.00000362  00000+0  00000+0 0  9992
2 46610   0.3318  85.0400 0042568 120.9806  78.4091  1.00268251 20187
TIANTONG-1 2            
1 46916U 20082A   26092.84612071 -.00000361  00000+0  00000+0 0  9995
2 46916   0.9014 317.9461 0002767  54.7604 248.0194  1.00270837 19894
LUCAS (JDRS-1)          
1 47202U 20089A   26094.92071993 -.00000235  00000+0  00000+0 0  9994
2 47202   0.0287 266.6166 0002697 104.4804 244.3720  1.00272505 19680
SXM-7                   
1 47240U 20096A   26094.87247431 -.00000204  00000+0  00000+0 0  9996
2 47240   0.0256 120.6162 0004784   2.4611 299.0303  1.00272072  6707
